STARLINK-31363          
1 59782U 24093A   24168.91667824 -.00022434  00000+0 -53070-3 0  9997
2 59782  42.9999 199.2198 0001872 260.2936  48.0003 15.40735283  5907
STARLINK-31868          
1 59783U 24093B   24168.39728383  .00148347  00000+0  11068-2 0  9998
2 59783  42.9983 202.1014 0001991 289.1742  70.8910 15.71523003  5829
STARLINK-31848          
1 59784U 24093C   24168.41667824 -.00043050  00000+0 -10283-2 0  9999
2 59784  42.9996 203.4708 0001392 285.9174 298.4530 15.40723903  5908
STARLINK-31890          
1 59785U 24093D   24168.91667824  .00014896  00000+0  36294-3 0  9990
2 59785  43.0000 200.5567 0001496 269.6759 223.6504 15.40718964  5970
STARLINK-31862          
1 59786U 24093E   24168.91667824 -.00023658  00000+0 -56066-3 0  9998
2 59786  43.0001 200.4961 0001722 276.2078 242.0593 15.40708977  5739
STARLINK-31870          
1 59787U 24093F   24168.91667824 -.00003313  00000+0 -72101-4 0  9994
2 59787  43.0000 200.5265 0002057 292.2313 213.5942 15.40681727  5913
STARLINK-31888          
1 59788U 24093G   24168.91667824  .00040984  00000+0  98210-3 0  9996
2 59788  43.0001 200.4350 0001726 257.1498 285.8395 15.40730581  5833
STARLINK-31863          
1 59789U 24093H   24168.91667824  .00032988  00000+0  79395-3 0  9995
2 59789  43.0001 200.4658 0000691 287.6563 243.0078 15.40684730  5889
STARLINK-31873          
1 59790U 24093J   24168.91667824  .00029592  00000+0  71355-3 0  9992
2 59790  43.0001 200.4042 0001011 251.0751 304.5142 15.40673740  5962
STARLINK-31865          
1 59791U 24093K   24168.91667824  .00012772  00000+0  31265-3 0  9991
2 59791  43.0002 200.3738 0001192 278.6856 289.3431 15.40686000  5960
STARLINK-31893          
1 59792U 24093L   24168.91667824  .00004389  00000+0  11232-3 0  9999
2 59792  43.0002 200.3432 0001131 281.2601 299.2126 15.40687625  5890
STARLINK-31901          
1 59793U 24093M   24168.91667824 -.00403805  00000+0 -10101-1 0  9990
2 59793  43.0001 200.3123 0001531 295.5252 297.2679 15.40932725  5885
STARLINK-31823          
1 59794U 24093N   24168.91667824 -.02107949  00000+0 -53220-1 0  9992
2 59794  43.0001 200.2861 0001212 261.3615 342.3466 15.42756667  5892
STARLINK-31916          
1 59795U 24093P   24168.91667824 -.02165668  00000+0 -52277-1 0  9996
2 59795  43.0000 200.2628 0001280 260.3464 352.8504 15.44174027  5894
STARLINK-31907          
1 59797U 24093R   24168.91667824 -.02165880  00000+0 -49831-1 0  9996
2 59797  43.0001 200.2424 0001430 260.9364   0.2731 15.45563823  5841
STARLINK-31687          
1 59798U 24093S   24168.80106572 -.00001071  00000+0 -12435-4 0  9995
2 59798  43.0007 200.8560 0001294 262.9503  97.1210 15.50579438  5875
STARLINK-31810          
1 59799U 24093T   24168.80209555 -.00000983  00000+0 -10941-4 0  9992
2 59799  42.9998 200.8654 0000933 265.5847  94.4907 15.50572460  5877
STARLINK-31812          
1 59800U 24093U   24168.91667824 -.02165294  00000+0 -47884-1 0  9996
2 59800  43.0000 200.2235 0001335 261.7108   7.2163 15.46700173  5954
STARLINK-31815          
1 59801U 24093V   24168.80327789 -.00169214  00000+0 -30290-2 0  9996
2 59801  43.0025 200.8749 0001379 347.0825  12.9999 15.49753053  5879
STARLINK-31814          
1 59802U 24093W   24168.91667824 -.00891774  00000+0 -13134-1 0  9996
2 59802  42.9992 199.5626 0001043 301.2564 237.8671 15.57156952  5890
STARLINK-31794          
1 59803U 24093X   24168.80140746  .00000343  00000+0  11670-4 0  9992
2 59803  43.0000 200.8575 0001390 298.6528  61.4192 15.50577238  5948
STARLINK-31824          
1 59804U 24093Y   24168.80175417 -.00000450  00000+0 -18592-5 0  9998
2 59804  43.0001 200.8608 0001025 241.3010 118.7747 15.50569724  5878
2024-094A               
1 59805U 24094A   24168.89170518  .00015824  00000+0  66217-3 0  9990
2 59805  97.4719 239.6781 0009488 179.3962 180.7288 15.23615174  4225
2024-094B               
1 59806U 24094B   24168.93653229  .00016897  00000+0  67759-3 0  9994
2 59806  97.4715 239.7693 0012305 185.3936 174.7171 15.25007306  4223
2024-094C               
1 59807U 24094C   24168.82764700  .00017121  00000+0  71367-3 0  9991
2 59807  97.4784 239.6500 0008594 161.1987 297.4406 15.23736150  4205
2024-094D               
1 59808U 24094D   24168.90251709  .00014418  00000+0  62436-3 0  9994
2 59808  97.4711 239.6614 0007996 216.4783 143.5909 15.22485813  4211
2024-092K               
1 59809U 24092K   24168.93552529  .00009664  00000+0  62744-3 0  9999
2 59809  97.5981 280.7648 0013809 172.1763 187.9683 15.08179450  4157
2024-095A               
1 59810U 24095A   24168.89707582  .00009317  00000+0  54800-3 0  9999
2 59810  97.6012 244.1256 0011371 174.3866 185.7493 15.11825237  4042
2024-095B               
1 59811U 24095B   24168.89818162  .00004173  00000+0  24910-3 0  9991
2 59811  97.6019 244.1297 0011123 176.4278 183.7033 15.11629740  4049
2024-095C               
1 59812U 24095C   24168.89073241  .00013639  00000+0  78947-3 0  9999
2 59812  97.6004 244.1273 0010625 180.6636 179.4582 15.12310388  4046
2024-095D               
1 59813U 24095D   24168.88640495  .00014419  00000+0  82823-3 0  9995
2 59813  97.6009 244.1351 0009583 179.4629 180.6613 15.12582733  4042
STARLINK-31947          
1 59835U 24097A   24168.91667824  .00005844  00000+0  14710-3 0  9992
2 59835  42.9997 267.4538 0001511 272.9348  37.0053 15.40688717  5178
STARLINK-31929          
1 59836U 24097B   24168.64856133  .00001002  00000+0  22900-4 0  9999
2 59836  42.9992 268.7583 0001379 292.4130  67.6583 15.50578868  5056
STARLINK-31927          
1 59837U 24097C   24168.91667824 -.02062103  00000+0 -52215-1 0  9999
2 59837  42.9991 267.2460 0001144 266.9956 128.6355 15.42588044  5127
STARLINK-31855          
1 59838U 24097D   24168.64805733 -.00000215  00000+0  21665-5 0  9995
2 59838  42.9994 268.7531 0001648 267.1632  92.9040 15.50570867  5058
STARLINK-31887          
1 59839U 24097E   24168.91667824 -.00055725  00000+0 -13352-2 0  9991
2 59839  42.9994 267.3320 0001664 259.9805  99.7199 15.40727939  5063
STARLINK-31925          
1 59840U 24097F   24168.64756539 -.00006439  00000+0 -10389-3 0  9991
2 59840  42.9993 268.7498 0009521 319.4694  40.5457 15.50532256  5050
STARLINK-31852          
1 59841U 24097G   24168.91667824 -.00024346  00000+0 -41027-3 0  9990
2 59841  42.9990 267.1725 0001533 273.5149 152.1416 15.50591184  5166
STARLINK-31906          
1 59842U 24097H   24167.91667824 -.01799523  00000+0 -33979-1 0  9992
2 59842  42.9992 273.0164 0001288 265.9733 332.2985 15.51065601  5009
STARLINK-31857          
1 59843U 24097J   24168.64675336  .00030856  00000+0  52865-3 0  9992
2 59843  42.9994 268.7443 0001691 318.1998  41.8733 15.50635058  5052
STARLINK-31851          
1 59844U 24097K   24168.91667824  .00001168  00000+0  35209-4 0  9994
2 59844  42.9995 267.3910 0001426 293.8701  40.9392 15.40704997  5166
STARLINK-31903          
1 59845U 24097L   24168.64625312 -.00000380  00000+0 -65901-6 0  9992
2 59845  42.9987 268.7382 0001772 265.5569  94.5088 15.50579415  5059
STARLINK-31922          
1 59846U 24097M   24168.64599865  .00004609  00000+0  84342-4 0  9990
2 59846  42.9993 268.7356 0001362 275.8313  84.2392 15.50580131  5055
STARLINK-31889          
1 59847U 24097N   24167.91667824 -.00803269  00000+0 -14762-1 0  9998
2 59847  42.9992 272.9979 0001507 270.0208 335.4471 15.50879101  4960
STARLINK-31859          
1 59848U 24097P   24168.70991005 -.00001678  00000+0 -22799-4 0  9994
2 59848  42.9990 268.3535 0001479 284.3948  75.6747 15.50565688  5066
STARLINK-31895          
1 59849U 24097Q   24168.91667824  .00037444  00000+0  89947-3 0  9992
2 59849  42.9994 267.3603 0001659 263.2675  83.9450 15.40692103  5121
STARLINK-31899          
1 59850U 24097R   24168.91667824  .00037485  00000+0  90004-3 0  9995
2 59850  42.9992 267.2993 0001535 269.3525 102.7108 15.40705334  5127
STARLINK-31896          
1 59851U 24097S   24168.91667824 -.00001240  00000+0 -22421-4 0  9997
2 59851  42.9991 267.2690 0001460 260.5767 123.9893 15.40714533  5160
STARLINK-31897          
1 59852U 24097T   24168.91667824 -.00456860  00000+0 -11487-1 0  9997
2 59852  42.9993 267.2084 0001894 264.9683 144.3645 15.40984908  5129
STARLINK-31892          
1 59853U 24097U   24167.91667824 -.00133469  00000+0 -23044-2 0  9997
2 59853  42.9992 272.9760 0001839 279.5486 334.5542 15.50623670  4962
STARLINK-31891          
1 59854U 24097V   24168.70841586 -.00036879  00000+0 -62850-3 0  9991
2 59854  42.9985 268.3421 0002571 245.9895 114.0696 15.50453333  5063
STARLINK-31882          
1 59855U 24097W   24168.70811523  .00008007  00000+0  14216-3 0  9993
2 59855  42.9979 268.3386 0001738 356.5977   3.4871 15.50581693  5068
STARLINK-31691          
1 59856U 24097X   24168.70784969  .00007276  00000+0  12968-3 0  9996
2 59856  43.0005 268.3363 0001311 269.2024  90.8686 15.50591574  5069
STARLINK-31569          
1 59857U 24097Y   24168.91667824 -.01568480  00000+0 -40105-1 0  9994
2 59857  42.9993 267.1789 0001402 278.2956 142.8856 15.41909409  5177
STARLINK-31654          
1 59858U 24098A   24168.91667824  .00002046  00000+0  56234-4 0  9997
2 59858  42.9993 276.3419 0002322 267.6152 355.3503 15.40697176  5008
STARLINK-31442          
1 59859U 24098B   24168.91667824 -.01730806  00000+0 -31045-1 0  9993
2 59859  42.9994 275.2368 0001296 263.6421  86.1170 15.52349202  4358
STARLINK-31651          
1 59860U 24098C   24168.91667824 -.01247569  00000+0 -23085-1 0  9999
2 59860  42.9994 276.2402 0001176 274.3536  30.0303 15.50990719  4307
STARLINK-31703          
1 59861U 24098D   24168.91667824 -.00065148  00000+0 -11125-2 0  9993
2 59861  42.9992 276.2370 0001546 273.8162  32.0631 15.50614227  4358
STARLINK-31584          
1 59862U 24098E   24168.91667824 -.02186094  00000+0 -51814-1 0  9998
2 59862  42.9994 276.2650 0001508 263.1014  31.0206 15.44739743  4191
STARLINK-31950          
1 59863U 24098F   24168.91667824 -.00035736  00000+0 -60577-3 0  9991
2 59863  42.9993 276.2293 0001716 259.6627  49.0891 15.50593320  4358
